1 44235U 19029A   19150.85024473 -.00001115  00000-0 -20834-4 0  9999
2 44235  52.9914 143.4635 0001913  57.0779 303.0406 15.35660891  2276
1 44236U 19029B   19150.84328730  .00004226  00000-0  12151-3 0  9998
2 44236  53.0006 143.3589 0002650  63.1707 296.9566 15.38046353  2277
1 44237U 19029C   19150.85021579 -.00000762  00000-0 -11254-4 0  9998
2 44237  52.9928 143.4418 0002014  51.5427 308.5754 15.34678312  1152
1 44238U 19029D   19150.84294008  .00002223  00000-0  69549-4 0  9999
2 44238  53.0005 143.3519 0002206  55.1635 304.9574 15.37710049  1085
1 44239U 19029E   19150.86277490  .00000809  00000-0  38625-4 0  9997
2 44239  52.9856 143.4615 0001617 298.7514  61.3322 15.30955008  1075
1 44240U 19029F   19150.85004737 -.00001084  00000-0 -20163-4 0  9996
2 44240  52.9913 143.4586 0001515  85.9600 274.1574 15.35385671  1135
1 44241U 19029G   19150.86355722  .00000883  00000-0  41984-4 0  9999
2 44241  52.9856 143.4284 0001852 303.5504  56.5317 15.30186414  1151
1 44242U 19029H   19150.84373400  .00003394  00000-0  10075-3 0  9997
2 44242  53.0006 143.3586 0002366  62.4350 297.6892 15.37685560  1155
1 44243U 19029J   19150.83759699  .00007111  00000-0  16929-3 0  9990
2 44243  53.0003 143.3288 0006236 291.1513  68.8824 15.42762192  1138
1 44244U 19029K   19150.85211763 -.00000246  00000-0  38600-5 0  9993
2 44244  52.9911 143.3867 0001697  61.8759 298.2412 15.33637125  1115
1 44245U 19029L   19150.86295630  .00000935  00000-0  44497-4 0  9994
2 44245  52.9843 143.4088 0002115 304.1878  55.8919 15.29556551  1136
1 44246U 19029M   19150.85037674 -.00000744  00000-0 -10796-4 0  9991
2 44246  52.9931 143.4404 0001635  70.8026 289.3151 15.34542580  1084
1 44247U 19029N   19150.85220539 -.00000201  00000-0  52334-5 0  9998
2 44247  52.9921 143.3837 0001593  64.4445 295.6719 15.33525327  1179
1 44248U 19029P   19150.84223509  .00002092  00000-0  65361-4 0  9990
2 44248  53.0004 143.3471 0002009  48.9739 311.1436 15.38056486  1095
1 44249U 19029Q   19150.85164222  .00003201  00000-0  10469-3 0  9999
2 44249  53.0011 143.4103 0001709  77.8864 282.2328 15.34753708  1155
1 44250U 19029R   19150.85061617  .00003885  00000-0  12222-3 0  9992
2 44250  53.0010 143.4232 0002692  82.2516 277.8790 15.35408269  1114
1 44251U 19029S   19150.84324317  .00002415  00000-0  75269-4 0  9990
2 44251  53.0004 143.3552 0002187  71.1260 288.9979 15.37445101  1079
1 44252U 19029T   19150.85075692  .00005317  00000-0  16808-3 0  9998
2 44252  53.0011 143.4114 0002848  64.2085 295.9209 15.34457929  1088
1 44253U 19029U   19150.86296588  .00004328  00000-0  15276-3 0  9998
2 44253  53.0007 143.4775 0002661  95.1609 264.9694 15.31353412  1134
1 44254U 19029V   19150.85051153 -.00000670  00000-0 -86680-5 0  9992
2 44254  52.9914 143.4332 0001692  69.0128 291.1053 15.34408928  1090
1 44255U 19029W   19150.84329245  .00003522  00000-0  10069-3 0  9995
2 44255  53.0006 143.3841 0001951  61.3154 298.8045 15.38760010  1093
1 44256U 19029X   19150.84793144  .00001748  00000-0  60588-4 0  9999
2 44256  53.0011 143.3777 0002620  68.7937 291.3343 15.35641443  1063
1 44257U 19029Y   19150.84367103  .00005566  00000-0  15968-3 0  9995
2 44257  53.0006 143.3546 0002863  62.8949 297.2345 15.37456339  1145
1 44258U 19029Z   19150.85037406  .00005291  00000-0  16133-3 0  9997
2 44258  53.0012 143.4278 0002754  84.9460 275.1855 15.35627027  1130
1 44259U 19029AA  19150.83784369  .00003739  00000-0  94097-4 0  9994
2 44259  53.0003 143.3311 0005853 292.9031  67.1355 15.42569339  1117
1 44260U 19029AB  19150.84383980  .00003395  00000-0  97820-4 0  9996
2 44260  53.0007 143.3909 0002571  70.6289 289.4991 15.38637732  1142
1 44261U 19029AC  19150.85079460  .00002016  00000-0  68605-4 0  9991
2 44261  53.0012 143.4209 0002799  83.3959 276.7360 15.35446482  1146
1 44262U 19029AD  19150.86353265  .00000854  00000-0  40827-4 0  9995
2 44262  52.9833 143.4326 0001969 299.2718  60.8084 15.30336851  1165
1 44263U 19029AE  19150.85221994 -.00000151  00000-0  67688-5 0  9994
2 44263  52.9932 143.3802 0001590  85.4264 274.6918 15.33401364  1149
1 44264U 19029AF  19150.85177103  .00004487  00000-0  14181-3 0  9990
2 44264  53.0011 143.3993 0001709  78.4252 281.6940 15.34863021  1126
1 44265U 19029AG  19150.83851720 -.00001259  00000-0 -19102-4 0  9998
2 44265  53.0005 143.3360 0005982 291.9028  68.1340 15.42509949  1158
1 44266U 19029AH  19150.84374120  .00002901  00000-0  87523-4 0  9999
2 44266  53.0005 143.3587 0001936  52.5202 307.5976 15.37726829  1090
1 44267U 19029AJ  19150.84355219  .00002158  00000-0  68629-4 0  9998
2 44267  53.0006 143.3592 0001696  50.6515 309.4637 15.37325385  1128
1 44268U 19029AK  19150.84232736  .00001723  00000-0  55676-4 0  9992
2 44268  53.0003 143.3531 0002054  51.1886 308.9299 15.38055452  1095
1 44269U 19029AL  19150.85210572 -.00000090  00000-0  86890-5 0  9998
2 44269  52.9915 143.3751 0001746  58.7372 301.3798 15.33128023  1170
1 44270U 19029AM  19150.84364165  .00005288  00000-0  14892-3 0  9991
2 44270  53.0006 143.3593 0002774  77.4568 282.6744 15.38153146  1166
1 44271U 19029AN  19150.84329599  .00003621  00000-0  10548-3 0  9997
2 44271  53.0005 143.3688 0002613  67.4836 292.6442 15.38084564  1152
1 44272U 19029AP  19150.84344358  .00005276  00000-0  15039-3 0  9996
2 44272  53.0006 143.3614 0002219  59.4061 300.7159 15.37772945  1136
1 44273U 19029AQ  19151.16089985  .00012271  00000-0  28321-3 0  9996
2 44273  53.0007 141.7823 0005763 289.2822  70.7559 15.42964066  1172
1 44274U 19029AR  19150.85125690  .00005090  00000-0  15730-3 0  9997
2 44274  53.0012 143.4119 0001573  79.1265 280.9913 15.35281890  1121
1 44275U 19029AS  19150.84306425  .00005828  00000-0  16204-3 0  9990
2 44275  53.0003 143.3719 0002956  68.2586 291.8731 15.38349173  1118
1 44276U 19029AT  19150.84314923  .00002570  00000-0  77535-4 0  9999
2 44276  53.0005 143.3699 0002794  68.6248 291.5052 15.38225045  1144
1 44277U 19029AU  19150.84298053  .00002995  00000-0  88034-4 0  9992
2 44277  53.0006 143.3734 0001864  53.8752 306.2422 15.38440529  1139
1 44278U 19029AV  19150.85126216 -.00000588  00000-0 -68322-5 0  9992
2 44278  52.9889 143.3684 0001273  81.0360 279.0784 15.32673640  1115
1 44279U 19029AW  19150.84349329  .00003242  00000-0  93479-4 0  9992
2 44279  53.0006 143.3880 0002680  71.8002 288.3292 15.38776563  1098
1 44280U 19029AX  19150.84380485 -.00001208  00000-0 -21631-4 0  9995
2 44280  52.9931 143.4000 0000513  81.5053 278.6007 15.37874316  1143
1 44281U 19029AY  19150.84295010  .00003530  00000-0  10137-3 0  9991
2 44281  53.0006 143.3756 0001858  57.8776 302.2407 15.38612401  1084
1 44282U 19029AZ  19150.84314179  .00003352  00000-0  95990-4 0  9993
2 44282  53.0006 143.3807 0002771  72.4421 287.6884 15.38873500  1115
1 44283U 19029BA  19150.84296030  .00004321  00000-0  12126-3 0  9995
2 44283  53.0006 143.3773 0001804  60.6271 299.4911 15.38751778  1132
1 44284U 19029BB  19150.86302166  .00000815  00000-0  38929-4 0  9990
2 44284  52.9903 143.4535 0001078  45.3301 314.7786 15.30844884  1146
1 44285U 19029BC  19150.85222064 -.00000165  00000-0  63595-5 0  9995
2 44285  52.9911 143.3790 0001393  73.5843 286.5310 15.33269843  2219
1 44286U 19029BD  19150.85195965 -.00000094  00000-0  85630-5 0  9990
2 44286  52.9916 143.3726 0001435  81.6347 278.4815 15.32965249  2212
1 44287U 19029BE  19150.86263969  .00004253  00000-0  15176-3 0  9998
2 44287  53.0009 143.4498 0001448  90.9659 269.1506 15.31035621  2213
1 44288U 19029BF  19150.85076593 -.00001169  00000-0 -24881-4 0  9992
2 44288  52.9885 143.3639 0001400  43.4965 316.6145 15.32801138  2213
1 44289U 19029BG  19150.85014329 -.00000916  00000-0 -15684-4 0  9992
2 44289  52.9910 143.4504 0001390  91.8520 268.2639 15.34828514  2216
1 44290U 19029BH  19150.86249233  .00000793  00000-0  38001-4 0  9998
2 44290  52.9916 143.4662 0001180  44.8078 315.3016 15.31038684  2213
1 44291U 19029BJ  19150.86261519  .00000851  00000-0  40599-4 0  9990
2 44291  52.9898 143.4217 0001268  37.5496 322.5591 15.30436820  2210
1 44292U 19029BK  19150.86322212  .00000819  00000-0  39195-4 0  9993
2 44292  52.9898 143.4474 0001117  40.0055 320.1026 15.30731475  2210
1 44293U 19029BL  19150.86133391  .00000799  00000-0  38326-4 0  9994
2 44293  52.9904 143.4203 0001346  44.3441 315.7665 15.30926243  2217
1 44294U 19029BM  19150.86154173  .00002583  00000-0  92831-4 0  9990
2 44294  53.0009 143.4803 0001479 107.3705 252.7457 15.32457645  2218